NORAD_CAT_ID,OBJECT_NAME,OBJECT_TYPE,EPOCH,MEAN_MOTION,ECCENTRICITY,INCLINATION,RA_OF_ASC_NODE,ARG_OF_PERICENTER,MEAN_ANOMALY,BSTAR,MEAN_MOTION_DOT,MEAN_MOTION_DDOT,TLE_LINE0,TLE_LINE1,TLE_LINE2,SEMIMAJOR_AXIS,PERIOD,APOGEE,PERIGEE,DECAYED
53707.0,STARLINK-4667,PAYLOAD,2023-04-18 05:21:30,15.08843878,0.0001001,53.2169,291.798,79.6079,280.5026,-2.4465e-05,-6.77e-06,0.0,0 STARLINK-4667,1 53707U 22107H   23108.22326588 -.00000677  00000-0 -24465-4 0  9991,2 53707  53.2169 291.7980 0001001  79.6079 280.5026 15.08843878 35571,6917.869,95.437,540.426,539.041,0.0
53707.0,STARLINK-4667,PAYLOAD,2023-04-18 16:29:12,15.08824917,9.66e-05,53.2173,289.7172,76.7948,283.3152,0.00015556,2.188e-05,0.0,0 STARLINK-4667,1 53707U 22107H   23108.68695409  .00002188  00000-0  15556-3 0  9999,2 53707  53.2173 289.7172 0000966  76.7948 283.3152 15.08824917 35640,6917.926,95.439,540.46,539.123,0.0
53707.0,STARLINK-4667,PAYLOAD,2023-04-18 19:39:58,15.08838164,0.0001191,53.2172,289.1206,74.4455,285.6668,7.483e-05,9.03e-06,0.0,0 STARLINK-4667,1 53707U 22107H   23108.81942885  .00000903  00000-0  74830-4 0  9991,2 53707  53.2172 289.1206 0001191  74.4455 285.6668 15.08838164 34915,6917.886,95.438,540.575,538.927,0.0
53707.0,STARLINK-4667,PAYLOAD,2023-04-19 11:33:50,15.08825507,8.37e-05,53.2167,286.1488,72.6324,287.476,0.00023928,3.521e-05,0.0,0 STARLINK-4667,1 53707U 22107H   23109.48183048  .00003521  00000-0  23928-3 0  9993,2 53707  53.2167 286.1488 0000837  72.6324 287.4760 15.08825507 35763,6917.925,95.438,540.369,539.211,0.0
53707.0,STARLINK-4667,PAYLOAD,2023-04-19 17:55:22,15.08841644,0.0001029,53.2163,284.9601,69.0148,291.0954,7.9739e-05,9.82e-06,0.0,0 STARLINK-4667,1 53707U 22107H   23109.74678607  .00000982  00000-0  79739-4 0  9992,2 53707  53.2163 284.9601 0001029  69.0148 291.0954 15.08841644 35801,6917.875,95.437,540.452,539.029,0.0
53707.0,STARLINK-4667,PAYLOAD,2023-04-20 05:03:03,15.08847867,8.69e-05,53.2157,282.8769,84.5102,275.5989,1.7123e-05,-1.5e-07,0.0,0 STARLINK-4667,1 53707U 22107H   23110.21046169 -.00000015  00000-0  17123-4 0  9995,2 53707  53.2157 282.8769 0000869  84.5102 275.5989 15.08847867 35122,6917.856,95.437,540.323,539.12,0.0
53707.0,STARLINK-4667,PAYLOAD,2023-04-20 11:24:36,15.0883712,9.85e-05,53.2163,281.6869,83.5579,276.5526,3.4896e-05,2.68e-06,0.0,0 STARLINK-4667,1 53707U 22107H   23110.47542810  .00000268  00000-0  34896-4 0  9992,2 53707  53.2163 281.6869 0000985  83.5579 276.5526 15.08837120 35919,6917.889,95.438,540.436,539.073,0.0
53707.0,STARLINK-4667,PAYLOAD,2023-04-20 17:46:09,15.08844106,0.0001557,53.2169,280.4984,77.5616,282.5551,6.0057e-05,6.68e-06,0.0,0 STARLINK-4667,1 53707U 22107H   23110.74038463  .00000668  00000-0  60057-4 0  9998,2 53707  53.2169 280.4984 0001557  77.5616 282.5551 15.08844106 35952,6917.868,95.437,540.81,538.656,0.0
53707.0,STARLINK-4667,PAYLOAD,2023-04-21 04:53:51,15.08840179,0.0001167,53.2167,278.416,80.4767,279.6357,-7.0932e-06,-4.01e-06,0.0,0 STARLINK-4667,1 53707U 22107H   23111.20406720 -.00000401  00000-0 -70932-5 0  9996,2 53707  53.2167 278.4160 0001167  80.4767 279.6357 15.08840179 36026,6917.88,95.438,540.552,538.938,0.0
53707.0,STARLINK-4667,PAYLOAD,2023-04-21 14:26:10,15.08835846,0.0001252,53.2168,276.6329,78.7176,281.3957,-3.0862e-05,-7.79e-06,0.0,0 STARLINK-4667,1 53707U 22107H   23111.60151124 -.00000779  00000-0 -30862-4 0  9990,2 53707  53.2168 276.6329 0001252  78.7176 281.3957 15.08835846 36080,6917.893,95.438,540.624,538.892,0.0
53707.0,STARLINK-4667,PAYLOAD,2023-04-21 17:36:56,15.08840136,0.0001205,53.2169,276.037,89.0472,271.0658,-3.6681e-05,-8.72e-06,0.0,0 STARLINK-4667,1 53707U 22107H   23111.73398866 -.00000872  00000-0 -36681-4 0  9999,2 53707  53.2169 276.0370 0001205  89.0472 271.0658 15.08840136 36108,6917.88,95.438,540.579,538.911,0.0
53707.0,STARLINK-4667,PAYLOAD,2023-04-22 19:03:06,15.08843785,0.0001236,53.2155,271.2794,77.3558,282.7573,7.6962e-05,9.37e-06,0.0,0 STARLINK-4667,1 53707U 22107H   23112.79382168  .00000937  00000-0  76962-4 0  9990,2 53707  53.2155 271.2794 0001236  77.3558 282.7573 15.08843785 35511,6917.869,95.437,540.589,538.879,0.0
53707.0,STARLINK-4667,PAYLOAD,2023-04-23 03:00:02,15.08831848,0.000153,53.2156,269.7912,81.1889,278.9277,-3.6804e-05,-8.74e-06,0.0,0 STARLINK-4667,1 53707U 22107H   23113.12503450 -.00000874  00000-0 -36804-4 0  9990,2 53707  53.2156 269.7912 0001530  81.1889 278.9277 15.08831848 35563,6917.905,95.438,540.829,538.712,0.0
53707.0,STARLINK-4667,PAYLOAD,2023-04-23 10:56:58,15.08829272,0.0001441,53.2162,268.3039,85.9802,274.1355,-1.8038e-05,-5.75e-06,0.0,0 STARLINK-4667,1 53707U 22107H   23113.45623649 -.00000575  00000-0 -18038-4 0  9996,2 53707  53.2162 268.3039 0001441  85.9802 274.1355 15.08829272 36365,6917.913,95.438,540.775,538.781,0.0
53707.0,STARLINK-4667,PAYLOAD,2023-04-23 18:53:54,15.08832524,0.0001453,53.2158,266.8177,83.9249,276.1909,-2.1179e-05,-6.25e-06,0.0,0 STARLINK-4667,1 53707U 22107H   23113.78743662 -.00000625  00000-0 -21179-4 0  9996,2 53707  53.2158 266.8177 0001453  83.9249 276.1909 15.08832524 36419,6917.903,95.438,540.773,538.763,0.0
53707.0,STARLINK-4667,PAYLOAD,2023-04-24 02:50:49,15.08838719,0.0001096,53.2164,265.3313,93.5458,266.5659,2.7865e-05,1.56e-06,0.0,0 STARLINK-4667,1 53707U 22107H   23114.11863029  .00000156  00000-0  27865-4 0  9999,2 53707  53.2164 265.3313 0001096  93.5458 266.5659 15.08838719 35713,6917.884,95.438,540.508,538.991,0.0
53707.0,STARLINK-4667,PAYLOAD,2023-04-24 10:47:44,15.08856359,0.0001054,53.2173,263.8433,69.6193,290.4912,9.6584e-05,1.25e-05,0.0,0 STARLINK-4667,1 53707U 22107H   23114.44981662  .00001250  00000-0  96584-4 0  9999,2 53707  53.2173 263.8433 0001054  69.6193 290.4912 15.08856359 36510,6917.83,95.437,540.425,538.966,0.0
53707.0,STARLINK-4667,PAYLOAD,2023-04-24 17:09:15,15.08869403,0.0001584,53.2187,262.6616,107.4587,252.6579,0.0002321,3.411e-05,0.0,0 STARLINK-4667,1 53707U 22107H   23114.71476079  .00003411  00000-0  23210-3 0  9996,2 53707  53.2187 262.6616 0001584 107.4587 252.6579 15.08869403 35805,6917.791,95.436,540.751,538.56,0.0
53707.0,STARLINK-4667,PAYLOAD,2023-04-24 18:44:37,15.08875548,0.000117,53.2172,262.3571,79.6847,280.4277,0.00024636,3.639e-05,0.0,0 STARLINK-4667,1 53707U 22107H   23114.78099425  .00003639  00000-0  24636-3 0  9994,2 53707  53.2172 262.3571 0001170  79.6847 280.4277 15.08875548 35818,6917.772,95.435,540.446,538.827,0.0
53707.0,STARLINK-4667,PAYLOAD,2023-04-25 18:35:31,15.08804217,9.59e-05,53.2168,257.8984,115.7703,244.3388,-0.00021546,-3.712e-05,0.0,0 STARLINK-4667,1 53707U 22107H   23115.77466625 -.00003712  00000-0 -21546-3 0  9995,2 53707  53.2168 257.8984 0000959 115.7703 244.3388 15.08804217 35960,6917.99,95.44,540.518,539.191,0.0
53707.0,STARLINK-4667,PAYLOAD,2023-04-26 08:53:58,15.08844956,0.0001219,53.2244,255.2304,115.1201,244.9918,-0.00016719,-2.948e-05,0.0,0 STARLINK-4667,1 53707U 22107H   23116.37081125 -.00002948  00000-0 -16719-3 0  9996,2 53707  53.2244 255.2304 0001219 115.1201 244.9918 15.08844956 36803,6917.865,95.437,540.574,538.887,0.0
53707.0,STARLINK-4667,PAYLOAD,2023-04-26 15:15:29,15.08849487,6.29e-05,53.2189,254.0346,79.8052,280.3012,-2.4453e-05,-6.77e-06,0.0,0 STARLINK-4667,1 53707U 22107H   23116.63575924 -.00000677  00000-0 -24453-4 0  9992,2 53707  53.2189 254.0346 0000629  79.8052 280.3012 15.08849487 36845,6917.851,95.437,540.152,539.281,0.0
53707.0,STARLINK-4667,PAYLOAD,2023-04-27 02:23:10,15.08877551,5.05e-05,53.2169,251.9512,109.9961,250.1086,-0.00041254,-6.854e-05,0.0,0 STARLINK-4667,1 53707U 22107H   23117.09942638 -.00006854  00000-0 -41254-3 0  9993,2 53707  53.2169 251.9512 0000505 109.9961 250.1086 15.08877551 36165,6917.766,95.435,539.98,539.281,0.0
53707.0,STARLINK-4667,PAYLOAD,2023-04-27 11:55:30,15.08829278,0.0001377,53.2156,250.1666,142.5308,217.578,0.00032514,4.889e-05,0.0,0 STARLINK-4667,1 53707U 22107H   23117.49687886  .00004889  00000-0  32514-3 0  9991,2 53707  53.2156 250.1666 0001377 142.5308 217.5780 15.08829278 36978,6917.913,95.438,540.731,538.826,0.0
53707.0,STARLINK-4667,PAYLOAD,2023-04-28 11:46:17,15.08844863,7.45e-05,53.2158,245.7066,86.8707,273.2371,-3.4587e-05,-8.38e-06,0.0,0 STARLINK-4667,1 53707U 22107H   23118.49048364 -.00000838  00000-0 -34587-4 0  9999,2 53707  53.2158 245.7066 0000745  86.8707 273.2371 15.08844863 37125,6917.866,95.437,540.246,539.215,0.0
53707.0,STARLINK-4667,PAYLOAD,2023-04-28 18:07:49,15.08854725,6.99e-05,53.2158,244.517,92.5241,267.5831,4.726e-05,4.65e-06,0.0,0 STARLINK-4667,1 53707U 22107H   23118.75543287  .00000465  00000-0  47260-4 0  9998,2 53707  53.2158 244.5170 0000699  92.5241 267.5831 15.08854725 36419,6917.835,95.437,540.184,539.217,0.0
53707.0,STARLINK-4667,PAYLOAD,2023-04-29 11:37:04,15.08844992,9.1e-05,53.2161,241.2445,97.4456,262.664,-7.5085e-05,-1.483e-05,0.0,0 STARLINK-4667,1 53707U 22107H   23119.48407911 -.00001483  00000-0 -75085-4 0  9991,2 53707  53.2161 241.2445 0000910  97.4456 262.6640 15.08844992 37274,6917.865,95.437,540.36,539.101,0.0
53707.0,STARLINK-4667,PAYLOAD,2023-04-29 17:58:36,15.0884528,9.4e-05,53.216,240.0551,96.3644,263.7456,-7.107e-05,-1.419e-05,0.0,0 STARLINK-4667,1 53707U 22107H   23119.74903804 -.00001419  00000-0 -71070-4 0  9991,2 53707  53.2160 240.0551 0000940  96.3644 263.7456 15.08845280 36567,6917.864,95.437,540.38,539.079,0.0
53707.0,STARLINK-4667,PAYLOAD,2023-04-30 13:03:14,15.08840641,9.16e-05,53.216,236.4864,92.1086,268.0012,1.9211e-05,1.8e-07,0.0,0 STARLINK-4667,1 53707U 22107H   23120.54391616  .00000018  00000-0  19211-4 0  9994,2 53707  53.2160 236.4864 0000916  92.1086 268.0012 15.08840641 37439,6917.878,95.438,540.377,539.11,0.0
53707.0,STARLINK-4667,PAYLOAD,2023-04-30 19:24:46,15.08849186,9.06e-05,53.2162,235.296,96.1456,263.9639,8.6732e-06,-1.5e-06,0.0,0 STARLINK-4667,1 53707U 22107H   23120.80887012 -.00000150  00000-0  86732-5 0  9994,2 53707  53.2162 235.2960 0000906  96.1456 263.9639 15.08849186 36722,6917.852,95.437,540.344,539.091,0.0
